{
    "links": {
        "self": "http://www.neowsapp.com/rest/v1/neo/3873144?api_key=iIulBulltgU6a56xZRHN4H3l9WmuAYTsLGpBGhQ2"
    },
    "id": "3873144",
    "neo_reference_id": "3873144",
    "name": "(2019 SY8)",
    "designation": "2019 SY8",
    "nasa_jpl_url": "http://ssd.jpl.nasa.gov/sbdb.cgi?sstr=3873144",
    "absolute_magnitude_h": 24.8,
    "estimated_diameter": {
        "kilometers": {
            "estimated_diameter_min": 0.0291443905,
            "estimated_diameter_max": 0.0651688382
        },
        "meters": {
            "estimated_diameter_min": 29.1443904535,
            "estimated_diameter_max": 65.1688382168
        },
        "miles": {
            "estimated_diameter_min": 0.018109479,
            "estimated_diameter_max": 0.0404940262
        },
        "feet": {
            "estimated_diameter_min": 95.6180819754,
            "estimated_diameter_max": 213.8085311752
        }
    },
    "is_potentially_hazardous_asteroid": false,
    "close_approach_data": [
        {
            "close_approach_date": "2017-09-13",
            "close_approach_date_full": "2017-Sep-13 23:09",
            "epoch_date_close_approach": 1505344140000,
            "relative_velocity": {
                "kilometers_per_second": "2.5456628457",
                "kilometers_per_hour": "9164.3862444214",
                "miles_per_hour": "5694.393219485"
            },
            "miss_distance": {
                "astronomical": "0.1544175507",
                "lunar": "60.0684272223",
                "kilometers": "23100536.675337009",
                "miles": "14354007.8858643642"
            },
            "orbiting_body": "Earth"
        },
        {
            "close_approach_date": "2019-09-22",
            "close_approach_date_full": "2019-Sep-22 08:23",
            "epoch_date_close_approach": 1569140580000,
            "relative_velocity": {
                "kilometers_per_second": "2.4715980006",
                "kilometers_per_hour": "8897.7528020601",
                "miles_per_hour": "5528.7175674801"
            },
            "miss_distance": {
                "astronomical": "0.1668908228",
                "lunar": "64.9205300692",
                "kilometers": "24966511.613427436",
                "miles": "15513470.9473771768"
            },
            "orbiting_body": "Earth"
        },
        {
            "close_approach_date": "2021-10-03",
            "close_approach_date_full": "2021-Oct-03 14:39",
            "epoch_date_close_approach": 1633271940000,
            "relative_velocity": {
                "kilometers_per_second": "2.3968510948",
                "kilometers_per_hour": "8628.663941244",
                "miles_per_hour": "5361.5162139358"
            },
            "miss_distance": {
                "astronomical": "0.2254154995",
                "lunar": "87.6866293055",
                "kilometers": "33721678.590186065",
                "miles": "20953679.440915097"
            },
            "orbiting_body": "Earth"
        }
    ],
    "orbital_data": {
        "orbit_id": "3",
        "orbit_determination_date": "2019-10-23 05:55:48",
        "first_observation_date": "2019-09-29",
        "last_observation_date": "2019-10-23",
        "data_arc_in_days": 24,
        "observations_used": 15,
        "orbit_uncertainty": "7",
        "minimum_orbit_intersection": ".152611",
        "jupiter_tisserand_invariant": "4.354",
        "epoch_osculation": "2459000.5",
        "eccentricity": ".2695352982116929",
        "semi_major_axis": "1.578628599571869",
        "inclination": "3.927272848869349",
        "ascending_node_longitude": "202.1806677102809",
        "orbital_period": "724.4666143920274",
        "perihelion_distance": "1.153132469220758",
        "perihelion_argument": "151.1323940917956",
        "aphelion_distance": "2.00412472992298",
        "perihelion_time": "2458739.024295283262",
        "mean_anomaly": "129.9318033820241",
        "mean_motion": ".4969173083318851",
        "equinox": "J2000",
        "orbit_class": {
            "orbit_class_type": "AMO",
            "orbit_class_description": "Near-Earth asteroid orbits similar to that of 1221 Amor",
            "orbit_class_range": "1.017 AU < q (perihelion) < 1.3 AU"
        }
    },
    "is_sentry_object": false
}